GSAT0201 (GALILEO 5)    
1 40128U 14050A   23249.49895939 -.00000092  00000+0  00000+0 0  9991
2 40128  49.9331 314.4807 1608803 140.4617 232.4702  1.85519218 59499
GSAT0202 (GALILEO 6)    
1 40129U 14050B   23248.68035222 -.00000092  00000+0  00000+0 0  9993
2 40129  49.9530 313.5850 1606769 141.2391 231.4765  1.85519849 61644
IRNSS-1C                
1 40269U 14061A   23249.50807021 -.00000174  00000+0  00000+0 0  9997
2 40269   3.9678 112.6449 0020041  17.7241 120.8843  1.00270392 32513
NAVSTAR 72 (USA 258)    
1 40294U 14068A   23248.81784554 -.00000039  00000+0  00000+0 0  9990
2 40294  56.1787  70.4018 0049122  61.9358 298.6025  2.00571890 64841
COSMOS 2501             
1 40315U 14075A   23249.29271905  .00000066  00000+0  00000+0 0  9995
2 40315  63.6404 225.5913 0019975 211.3441 148.5284  2.13101337 68223
NAVSTAR 73 (USA 260)    
1 40534U 15013A   23248.95391502  .00000045  00000+0  00000+0 0  9996
2 40534  53.4642 246.2226 0080433  25.2908 335.1054  2.00554618 61469
GSAT0203 (GALILEO 7)    
1 40544U 15017A   23248.83595987 -.00000107  00000+0  00000+0 0  9991
2 40544  56.9051   9.2315 0003176 225.9715 134.0054  1.70476215 51896
GSAT0204 (GALILEO 8)    
1 40545U 15017B   23247.91642251 -.00000105  00000+0  00000+0 0  9995
2 40545  56.9112   9.2708 0003472 207.9226 152.0612  1.70475680 52545
IRNSS-1D                
1 40547U 15018A   23245.95396405 -.00000287  00000+0  00000+0 0  9998
2 40547  28.0777 257.6583 0020041 192.2399 347.2610  1.00273097 30770
BEIDOU-3S IGSO-1S       
1 40549U 15019A   23249.57530553 -.00000161  00000+0  00000+0 0  9998
2 40549  51.0942 307.5446 0041057 195.9566 142.6173  1.00255849 30890
NAVSTAR 74 (USA 262)    
1 40730U 15033A   23249.11561328 -.00000065  00000+0  00000+0 0  9993
2 40730  54.8438 308.6590 0085248  13.9541 346.3409  2.00555165 59630
BEIDOU-3S M2S           
1 40748U 15037A   23248.40646514 -.00000114  00000+0  00000+0 0  9993
2 40748  55.6615 336.7316 0011286 241.0085 118.9193  1.86233124 55204
BEIDOU-3S M1S           
1 40749U 15037B   23249.21351609 -.00000116  00000+0  00000+0 0  9994
2 40749  55.6641 336.6905 0003203 300.5852  59.4233  1.86232894 55229
GSAT0205 (GALILEO 9)    
1 40889U 15045A   23248.85752093  .00000039  00000+0  00000+0 0  9992
2 40889  55.3634 249.6539 0003529 358.2124   1.7911  1.70473426 49702
GSAT0206 (GALILEO 10)   
1 40890U 15045B   23247.31844457  .00000034  00000+0  00000+0 0  9995
2 40890  55.3631 249.6919 0002361 323.6055  36.3796  1.70473376 49704
BEIDOU-3S IGSO-2S       
1 40938U 15053A   23248.65759605 -.00000109  00000+0  00000+0 0  9999
2 40938  50.8066 270.7272 0048170 194.1918 212.3719  1.00282980 29175
NAVSTAR 75 (USA 265)    
1 41019U 15062A   23248.66964654 -.00000039  00000+0  00000+0 0  9995
2 41019  56.1623  70.2577 0089155 221.0079 138.3599  2.00562295 57468
GSAT-15                 
1 41028U 15065A   23249.57958005 -.00000270  00000+0  00000+0 0  9999
2 41028   0.0567 274.9809 0001911 235.2984 137.2738  1.00272943 28626
GSAT0209 (GALILEO 12)   
1 41174U 15079A   23247.49020007 -.00000015  00000+0  00000+0 0  9994
2 41174  55.2996 129.1956 0003106 330.4649  29.5994  1.70473946 48020
GSAT0208 (GALILEO 11)   
1 41175U 15079B   23248.29637868 -.00000020  00000+0  00000+0 0  9999
2 41175  55.2983 129.1716 0002680 327.3126  32.7495  1.70473937 48035
IRNSS-1E                
1 41241U 16003A   23249.57359934 -.00000308  00000+0  00000+0 0  9997
2 41241  30.9811  77.7609 0020354 175.9339  50.0793  1.00275337 27903
NAVSTAR 76 (USA 266)    
1 41328U 16007A   23248.76157790 -.00000032  00000+0  00000+0 0  9997
2 41328  55.0170 129.7937 0071390 233.8705 125.5372  2.00575514 55479
COSMOS 2514             
1 41330U 16008A   23249.27405360 -.00000097  00000+0  00000+0 0  9998
2 41330  65.5028 347.6126 0011762 207.3397 152.6294  2.13102583 58991
IRNSS-1F                
1 41384U 16015A   23249.49788856  .00000147  00000+0  00000+0 0  9998
2 41384   2.9374 129.7276 0018465 176.9988 250.0263  1.00270371 27494
BEIDOU-2 IGSO-6         
1 41434U 16021A   23248.89451564 -.00000152  00000+0  00000+0 0  9994
2 41434  58.7570  48.2475 0047124 217.8930 137.0614  1.00282741 27295
IRNSS-1G                
1 41469U 16027A   23249.59908955 -.00000347  00000+0  00000+0 0  9993
2 41469   2.8277 131.3889 0002730 352.8454 206.2620  1.00278007 27000
GSAT0211 (GALILEO 14)   
1 41549U 16030A   23247.24412218  .00000034  00000+0  00000+0 0  9990
2 41549  55.5104 249.6742 0003952 307.8252  52.1401  1.70473483 45330
GSAT0210 (GALILEO 13)   
1 41550U 16030B   23248.70882852  .00000039  00000+0  00000+0 0  9994
2 41550  55.5090 249.6351 0004212 275.0252  84.9311  1.70473596 45358
COSMOS 2516             
1 41554U 16032A   23247.51170507  .00000060  00000+0  00000+0 0  9999
2 41554  63.8671 226.0542 0015487 214.6526 145.2336  2.13106404 56561
BEIDOU-2 G7             
1 41586U 16037A   23249.58964950 -.00000366  00000+0  00000+0 0  9991
2 41586   1.8758  68.4791 0006811 344.7887 254.9737  1.00270050 26614
EUTELSAT 117 WEST B     
1 41589U 16038B   23249.53934432 -.00000023  00000+0  00000+0 0  9992
2 41589   0.0232  22.7741 0000197  81.3054 318.4530  1.00271284 26486
GSAT0207 (GALILEO 15)   
1 41859U 16069A   23248.95720124 -.00000024  00000+0  00000+0 0  9993
2 41859  54.9630 129.2268 0002969 308.8215  51.2282  1.70473919 42095
GSAT0212 (GALILEO 16)   
1 41860U 16069B   23248.22529093 -.00000020  00000+0  00000+0 0  9993
2 41860  54.9600 129.2439 0002288   0.6676 359.4114  1.70474068 42336
GSAT0213 (GALILEO 17)   
1 41861U 16069C   23249.17793981 -.00000025  00000+0  00000+0 0  9993
2 41861  54.9627 129.2235 0002630 277.1924  82.8532  1.70472902 42211
GSAT0214 (GALILEO 18)   
1 41862U 16069D   23248.15201428 -.00000020  00000+0  00000+0 0  9996
2 41862  54.9609 129.2458 0001807 287.3467  72.7124  1.70472640 42325
SES-15                  
1 42709U 17026A   23249.54552128  .00000049  00000+0  00000+0 0  9991
2 42709   0.0261  44.8062 0000335 153.8463 213.9407  1.00269030 23965
QZS-2 (MICHIBIKI-2)     
1 42738U 17028A   23247.87567319 -.00000151  00000+0  00000+0 0  9992
2 42738  41.0437 257.8584 0752031 270.0959 272.1651  1.00264871 22955
QZS-3 (MICHIBIKI-3)     
1 42917U 17048A   23249.59839767 -.00000360  00000+0  00000+0 0  9995
2 42917   0.0594 201.4061 0002207 350.7010 135.7951  1.00271236 22089
COSMOS 2522             
1 42939U 17055A   23249.11581704  .00000067  00000+0  00000+0 0  9993
2 42939  64.1009 226.5244 0009795 243.3629 116.5288  2.13101972 46347
QZS-4 (MICHIBIKI-4)     
1 42965U 17062A   23247.62202146 -.00000352  00000+0  00000+0 0  9992
2 42965  40.6357 356.4420 0748041 269.2775  81.1294  1.00280539 21612
BEIDOU-3 M1             
1 43001U 17069A   23248.21696630 -.00000031  00000+0  00000+0 0  9996
2 43001  55.8428  96.7959 0007781 302.3522  57.6473  1.86231603 39685
BEIDOU-3 M2             
1 43002U 17069B   23249.22759639 -.00000033  00000+0  00000+0 0  9990
2 43002  55.8427  96.7986 0006255 334.4497  25.5928  1.86231187 39694
GSAT0215 (GALILEO 19)   
1 43055U 17079A   23249.22726105  .00000041  00000+0  00000+0 0  9999
2 43055  55.4859 249.4456 0003731 269.0299  90.9330  1.70474132 35685
GSAT0216 (GALILEO 20)   
1 43056U 17079B   23246.58625198  .00000032  00000+0  00000+0 0  9996
2 43056  55.4873 249.5184 0005310 274.6738  85.2661  1.70474233 35659
GSAT0217 (GALILEO 21)   
1 43057U 17079C   23249.15295128  .00000041  00000+0  00000+0 0  9999
2 43057  55.4843 249.4465 0004652 286.2745  73.6798  1.70474220 35684
GSAT0218 (GALILEO 22)   
1 43058U 17079D   23249.37300422  .00000041  00000+0  00000+0 0  9998
2 43058  55.4844 249.4380 0005753 271.9733  87.9669  1.70474206 35716
BEIDOU-3 M7             
1 43107U 18003A   23248.44145571 -.00000115  00000+0  00000+0 0  9993
2 43107  55.1177 337.4465 0003504  78.5457 281.5332  1.86232460 38437
BEIDOU-3 M8             
1 43108U 18003B   23248.37956737 -.00000115  00000+0  00000+0 0  9990
2 43108  55.1107 337.4356 0004004 242.8603 117.1387  1.86230905 38442
BEIDOU-3 M4             
1 43207U 18018A   23248.82192914 -.00000033  00000+0  00000+0 0  9994
2 43207  55.8019  96.8745 0004962  14.1279 345.9599  1.86231558 37834
BEIDOU-3 M3             
1 43208U 18018B   23248.88858282 -.00000033  00000+0  00000+0 0  9998
2 43208  55.8015  96.8767 0005808 320.3593  39.6720  1.86231456 37836
BEIDOU-3 M9             
1 43245U 18029A   23248.57445410 -.00000114  00000+0  00000+0 0  9992
2 43245  55.0116 335.1751 0001457 215.2378 144.7946  1.86232621 36980
BEIDOU-3 M10            
1 43246U 18029B   23246.89363951 -.00000107  00000+0  00000+0 0  9997
2 43246  55.0102 335.2620 0002696 356.7792   3.2632  1.86232871 36932
IRNSS-1I                
1 43286U 18035A   23249.14410338  .00000075  00000+0  00000+0 0  9994
2 43286  29.2547  90.1604 0019611 176.0397 185.7108  1.00272641 19907
COSMOS 2527             
1 43508U 18053A   23247.66676946 -.00000006  00000+0  00000+0 0  9990
2 43508  65.0915 107.9387 0007348 219.4359 140.5926  2.13102420 40611
BEIDOU-2 IGSO-7         
1 43539U 18057A   23248.77182251 -.00000148  00000+0  00000+0 0  9999
2 43539  55.1208 171.8466 0064522 231.2324 332.7459  1.00283260 18965
GSAT0221 (GALILEO 25)   
1 43564U 18060A   23248.68616472 -.00000106  00000+0  00000+0 0  9992
2 43564  57.2856   9.1641 0002793 253.2065 106.7658  1.70476096 31852
GSAT0222 (GALILEO 26)   
1 43565U 18060B   23248.31766755 -.00000105  00000+0  00000+0 0  9992
2 43565  57.2891   9.1752 0003396 210.7100 149.2728  1.70475838 31890
GSAT0219 (GALILEO 23)   
1 43566U 18060C   23249.12658164 -.00000107  00000+0  00000+0 0  9999
2 43566  57.2884   9.1554 0001838 255.0526 104.9301  1.70476098 31889
GSAT0220 (GALILEO 24)   
1 43567U 18060D   23248.76041858 -.00000106  00000+0  00000+0 0  9994
2 43567  57.2879   9.1649 0002289 249.1681 110.8103  1.70475983 31862
BEIDOU-3 M5             
1 43581U 18062A   23249.26169610  .00000046  00000+0  00000+0 0  9997
2 43581  54.1781 216.8463 0005262 280.1701  79.7449  1.86231927 34739
